ATLAS CENTAUR R/B       
1 06155U 72065B   26009.50148848  .00001328  00000+0  18453-3 0  9999
2 06155  35.0023 292.5687 0034484 233.0477 126.7064 14.77498036832503
SL-8 R/B                
1 08459U 75112B   26009.65520019  .00000302  00000+0  10787-3 0  9997
2 08459  74.0612 127.5118 0016546 236.0676 123.8906 14.38167444623388
SL-3 R/B                
1 10114U 77057B   26009.63625772  .00012404  00000+0  27619-3 0  9996
2 10114  97.5701 179.0686 0008267 130.0347 230.1627 15.43737970659216
SEASAT 1                
1 10967U 78064A   26009.76778586  .00000361  00000+0  13958-3 0  9997
2 10967 108.0154   1.8429 0001172 270.7282  89.3729 14.46098430497992
SL-14 R/B               
1 11267U 79011B   26009.49010321  .00000852  00000+0  81856-4 0  9998
2 11267  82.5252 152.7258 0014678 253.9553 106.0051 14.91815989519958
SL-8 R/B                
1 11574U 79089B   26009.65049208  .00000321  00000+0  10511-3 0  9998
2 11574  74.0671 200.3211 0015251  23.9530 336.2333 14.42303351427596
SL-14 R/B               
1 11672U 80005B   26009.46429050  .00000769  00000+0  75447-4 0  9999
2 11672  82.5143   3.4009 0015913   7.0613 353.0827 14.90834444467662
SL-8 R/B                
1 12139U 81003B   26009.68142179  .00027333  00000+0  72168-3 0  9997
2 12139  82.9384 344.4882 0273405  24.4386 336.9520 15.08242668305775
SL-3 R/B                
1 12465U 81046B   26009.63524368  .00011890  00000+0  29250-3 0  9990
2 12465  81.2330   0.5474 0018259 220.4681 139.5204 15.40312398429336
SL-3 R/B                
1 12904U 81103B   26009.63013302  .00007003  00000+0  31728-3 0  9997
2 12904  81.1593 282.6839 0014140 120.0277 240.2359 15.20631756964259
SL-3 R/B                
1 13068U 82013B   26009.66448144  .00004031  00000+0  17745-3 0  9990
2 13068  81.1729 229.9175 0023258  20.9108 339.3069 15.21370062395370
SL-3 R/B                
1 13154U 82039B   26009.61054091  .00002998  00000+0  18267-3 0  9993
2 13154  81.1685 284.0274 0029749 158.0704 202.1802 15.09723507372723
