CCSDS_OMM_VERS = 2.0
CREATION_DATE  = 
ORIGINATOR     = 

OBJECT_NAME    = ATLAS CENTAUR R/B
OBJECT_ID      = 1972-065B
CENTER_NAME    = EARTH
REF_FRAME      = TEME
TIME_SYSTEM    = UTC
MEAN_ELEMENT_THEORY = SGP/SGP4

EPOCH          = 2026-01-09T12:02:08.604672
MEAN_MOTION    = 14.77498036
ECCENTRICITY   = .0034484
INCLINATION    = 35.0023
RA_OF_ASC_NODE = 292.5687
ARG_OF_PERICENTER = 233.0477
MEAN_ANOMALY   = 126.7064

EPHEMERIS_TYPE = 0
CLASSIFICATION_TYPE = U
NORAD_CAT_ID   = 6155
ELEMENT_SET_NO = 999
REV_AT_EPOCH   = 83250
BSTAR          = .18453344E-3
MEAN_MOTION_DOT = .1328E-4
MEAN_MOTION_DDOT = 0

CCSDS_OMM_VERS = 2.0
CREATION_DATE  = 
ORIGINATOR     = 

OBJECT_NAME    = SL-8 R/B
OBJECT_ID      = 1975-112B
CENTER_NAME    = EARTH
REF_FRAME      = TEME
TIME_SYSTEM    = UTC
MEAN_ELEMENT_THEORY = SGP/SGP4

EPOCH          = 2026-01-09T15:43:29.296416
MEAN_MOTION    = 14.38167444
ECCENTRICITY   = .00165466
INCLINATION    = 74.0612
RA_OF_ASC_NODE = 127.5118
ARG_OF_PERICENTER = 236.0676
MEAN_ANOMALY   = 123.8906

EPHEMERIS_TYPE = 0
CLASSIFICATION_TYPE = U
NORAD_CAT_ID   = 8459
ELEMENT_SET_NO = 999
REV_AT_EPOCH   = 62338
BSTAR          = .107867E-3
MEAN_MOTION_DOT = .302E-5
MEAN_MOTION_DDOT = 0

CCSDS_OMM_VERS = 2.0
CREATION_DATE  = 
ORIGINATOR     = 

OBJECT_NAME    = SL-3 R/B
OBJECT_ID      = 1977-057B
CENTER_NAME    = EARTH
REF_FRAME      = TEME
TIME_SYSTEM    = UTC
MEAN_ELEMENT_THEORY = SGP/SGP4

EPOCH          = 2026-01-09T15:16:12.667008
MEAN_MOTION    = 15.43737970
ECCENTRICITY   = .00082673
INCLINATION    = 97.5701
RA_OF_ASC_NODE = 179.0686
ARG_OF_PERICENTER = 130.0347
MEAN_ANOMALY   = 230.1627

EPHEMERIS_TYPE = 0
CLASSIFICATION_TYPE = U
NORAD_CAT_ID   = 10114
ELEMENT_SET_NO = 999
REV_AT_EPOCH   = 65921
BSTAR          = .27618607E-3
MEAN_MOTION_DOT = .12404E-3
MEAN_MOTION_DDOT = 0

CCSDS_OMM_VERS = 2.0
CREATION_DATE  = 
ORIGINATOR     = 

OBJECT_NAME    = SEASAT 1
OBJECT_ID      = 1978-064A
CENTER_NAME    = EARTH
REF_FRAME      = TEME
TIME_SYSTEM    = UTC
MEAN_ELEMENT_THEORY = SGP/SGP4

EPOCH          = 2026-01-09T18:25:36.698304
MEAN_MOTION    = 14.46098430
ECCENTRICITY   = .00011728
INCLINATION    = 108.0154
RA_OF_ASC_NODE = 1.8429
ARG_OF_PERICENTER = 270.7282
MEAN_ANOMALY   = 89.3729

EPHEMERIS_TYPE = 0
CLASSIFICATION_TYPE = U
NORAD_CAT_ID   = 10967
ELEMENT_SET_NO = 999
REV_AT_EPOCH   = 49799
BSTAR          = .13957974E-3
MEAN_MOTION_DOT = .361E-5
MEAN_MOTION_DDOT = 0

CCSDS_OMM_VERS = 2.0
CREATION_DATE  = 
ORIGINATOR     = 

OBJECT_NAME    = SL-14 R/B
OBJECT_ID      = 1979-011B
CENTER_NAME    = EARTH
REF_FRAME      = TEME
TIME_SYSTEM    = UTC
MEAN_ELEMENT_THEORY = SGP/SGP4

EPOCH          = 2026-01-09T11:45:44.917344
MEAN_MOTION    = 14.91815989
ECCENTRICITY   = .00146786
INCLINATION    = 82.5252
RA_OF_ASC_NODE = 152.7258
ARG_OF_PERICENTER = 253.9553
MEAN_ANOMALY   = 106.0051

EPHEMERIS_TYPE = 0
CLASSIFICATION_TYPE = U
NORAD_CAT_ID   = 11267
ELEMENT_SET_NO = 999
REV_AT_EPOCH   = 51995
BSTAR          = .81856455E-4
MEAN_MOTION_DOT = .852E-5
MEAN_MOTION_DDOT = 0

CCSDS_OMM_VERS = 2.0
CREATION_DATE  = 
ORIGINATOR     = 

OBJECT_NAME    = SL-8 R/B
OBJECT_ID      = 1979-089B
CENTER_NAME    = EARTH
REF_FRAME      = TEME
TIME_SYSTEM    = UTC
MEAN_ELEMENT_THEORY = SGP/SGP4

EPOCH          = 2026-01-09T15:36:42.515712
MEAN_MOTION    = 14.42303351
ECCENTRICITY   = .00152514
INCLINATION    = 74.0671
RA_OF_ASC_NODE = 200.3211
ARG_OF_PERICENTER = 23.9530
MEAN_ANOMALY   = 336.2333

EPHEMERIS_TYPE = 0
CLASSIFICATION_TYPE = U
NORAD_CAT_ID   = 11574
ELEMENT_SET_NO = 999
REV_AT_EPOCH   = 42759
BSTAR          = .10510781E-3
MEAN_MOTION_DOT = .321E-5
MEAN_MOTION_DDOT = 0

CCSDS_OMM_VERS = 2.0
CREATION_DATE  = 
ORIGINATOR     = 

OBJECT_NAME    = SL-14 R/B
OBJECT_ID      = 1980-005B
CENTER_NAME    = EARTH
REF_FRAME      = TEME
TIME_SYSTEM    = UTC
MEAN_ELEMENT_THEORY = SGP/SGP4

EPOCH          = 2026-01-09T11:08:34.699200
MEAN_MOTION    = 14.90834444
ECCENTRICITY   = .00159137
INCLINATION    = 82.5143
RA_OF_ASC_NODE = 3.4009
ARG_OF_PERICENTER = 7.0613
MEAN_ANOMALY   = 353.0827

EPHEMERIS_TYPE = 0
CLASSIFICATION_TYPE = U
NORAD_CAT_ID   = 11672
ELEMENT_SET_NO = 999
REV_AT_EPOCH   = 46766
BSTAR          = .75447419E-4
MEAN_MOTION_DOT = .769E-5
MEAN_MOTION_DDOT = 0

CCSDS_OMM_VERS = 2.0
CREATION_DATE  = 
ORIGINATOR     = 

OBJECT_NAME    = SL-8 R/B
OBJECT_ID      = 1981-003B
CENTER_NAME    = EARTH
REF_FRAME      = TEME
TIME_SYSTEM    = UTC
MEAN_ELEMENT_THEORY = SGP/SGP4

EPOCH          = 2026-01-09T16:21:14.842656
MEAN_MOTION    = 15.08242668
ECCENTRICITY   = .02734052
INCLINATION    = 82.9384
RA_OF_ASC_NODE = 344.4882
ARG_OF_PERICENTER = 24.4386
MEAN_ANOMALY   = 336.9520

EPHEMERIS_TYPE = 0
CLASSIFICATION_TYPE = U
NORAD_CAT_ID   = 12139
ELEMENT_SET_NO = 999
REV_AT_EPOCH   = 30577
BSTAR          = .72167656E-3
MEAN_MOTION_DOT = .27333E-3
MEAN_MOTION_DDOT = 0

CCSDS_OMM_VERS = 2.0
CREATION_DATE  = 
ORIGINATOR     = 

OBJECT_NAME    = SL-3 R/B
OBJECT_ID      = 1981-046B
CENTER_NAME    = EARTH
REF_FRAME      = TEME
TIME_SYSTEM    = UTC
MEAN_ELEMENT_THEORY = SGP/SGP4

EPOCH          = 2026-01-09T15:14:45.053952
MEAN_MOTION    = 15.40312398
ECCENTRICITY   = .00182595
INCLINATION    = 81.2330
RA_OF_ASC_NODE = 0.5474
ARG_OF_PERICENTER = 220.4681
MEAN_ANOMALY   = 139.5204

EPHEMERIS_TYPE = 0
CLASSIFICATION_TYPE = U
NORAD_CAT_ID   = 12465
ELEMENT_SET_NO = 999
REV_AT_EPOCH   = 42933
BSTAR          = .29249614E-3
MEAN_MOTION_DOT = .1189E-3
MEAN_MOTION_DDOT = 0

CCSDS_OMM_VERS = 2.0
CREATION_DATE  = 
ORIGINATOR     = 

OBJECT_NAME    = SL-3 R/B
OBJECT_ID      = 1981-103B
CENTER_NAME    = EARTH
REF_FRAME      = TEME
TIME_SYSTEM    = UTC
MEAN_ELEMENT_THEORY = SGP/SGP4

EPOCH          = 2026-01-09T15:07:23.492928
MEAN_MOTION    = 15.20631756
ECCENTRICITY   = .00141401
INCLINATION    = 81.1593
RA_OF_ASC_NODE = 282.6839
ARG_OF_PERICENTER = 120.0277
MEAN_ANOMALY   = 240.2359

EPHEMERIS_TYPE = 0
CLASSIFICATION_TYPE = U
NORAD_CAT_ID   = 12904
ELEMENT_SET_NO = 999
REV_AT_EPOCH   = 96425
BSTAR          = .31728232E-3
MEAN_MOTION_DOT = .7003E-4
MEAN_MOTION_DDOT = 0

CCSDS_OMM_VERS = 2.0
CREATION_DATE  = 
ORIGINATOR     = 

OBJECT_NAME    = SL-3 R/B
OBJECT_ID      = 1982-013B
CENTER_NAME    = EARTH
REF_FRAME      = TEME
TIME_SYSTEM    = UTC
MEAN_ELEMENT_THEORY = SGP/SGP4

EPOCH          = 2026-01-09T15:56:51.196416
MEAN_MOTION    = 15.21370062
ECCENTRICITY   = .00232587
INCLINATION    = 81.1729
RA_OF_ASC_NODE = 229.9175
ARG_OF_PERICENTER = 20.9108
MEAN_ANOMALY   = 339.3069

EPHEMERIS_TYPE = 0
CLASSIFICATION_TYPE = U
NORAD_CAT_ID   = 13068
ELEMENT_SET_NO = 999
REV_AT_EPOCH   = 39537
BSTAR          = .17744532E-3
MEAN_MOTION_DOT = .4031E-4
MEAN_MOTION_DDOT = 0

CCSDS_OMM_VERS = 2.0
CREATION_DATE  = 
ORIGINATOR     = 

OBJECT_NAME    = SL-3 R/B
OBJECT_ID      = 1982-039B
CENTER_NAME    = EARTH
REF_FRAME      = TEME
TIME_SYSTEM    = UTC
MEAN_ELEMENT_THEORY = SGP/SGP4

EPOCH          = 2026-01-09T14:39:10.734624
MEAN_MOTION    = 15.09723507
ECCENTRICITY   = .00297499
INCLINATION    = 81.1685
RA_OF_ASC_NODE = 284.0274
ARG_OF_PERICENTER = 158.0704
MEAN_ANOMALY   = 202.1802

EPHEMERIS_TYPE = 0
CLASSIFICATION_TYPE = U
NORAD_CAT_ID   = 13154
ELEMENT_SET_NO = 999
REV_AT_EPOCH   = 37272
BSTAR          = .18266629E-3
MEAN_MOTION_DOT = .2998E-4
MEAN_MOTION_DDOT = 0

